CCSDS_OMM_VERS = 2.0
CREATION_DATE  = 
ORIGINATOR     = 

OBJECT_NAME    = COSMOS 2228
OBJECT_ID      = 1992-094A
CENTER_NAME    = EARTH
REF_FRAME      = TEME
TIME_SYSTEM    = UTC
MEAN_ELEMENT_THEORY = SGP/SGP4

EPOCH          = 2025-11-25T18:36:43.945632
MEAN_MOTION    = 14.96613168
ECCENTRICITY   = .0016461
INCLINATION    = 82.5177
RA_OF_ASC_NODE = 336.7668
ARG_OF_PERICENTER = 294.1665
MEAN_ANOMALY   = 65.7836

EPHEMERIS_TYPE = 0
CLASSIFICATION_TYPE = U
NORAD_CAT_ID   = 22286
ELEMENT_SET_NO = 999
REV_AT_EPOCH   = 76051
BSTAR          = .28463E-3
MEAN_MOTION_DOT = .3275E-4
MEAN_MOTION_DDOT = 0

CCSDS_OMM_VERS = 2.0
CREATION_DATE  = 
ORIGINATOR     = 

OBJECT_NAME    = SL-16 R/B
OBJECT_ID      = 1993-016B
CENTER_NAME    = EARTH
REF_FRAME      = TEME
TIME_SYSTEM    = UTC
MEAN_ELEMENT_THEORY = SGP/SGP4

EPOCH          = 2025-11-25T17:49:04.046016
MEAN_MOTION    = 14.15288800
ECCENTRICITY   = .0008268
INCLINATION    = 71.0088
RA_OF_ASC_NODE = 73.5006
ARG_OF_PERICENTER = 129.4756
MEAN_ANOMALY   = 230.7099

EPHEMERIS_TYPE = 0
CLASSIFICATION_TYPE = U
NORAD_CAT_ID   = 22566
ELEMENT_SET_NO = 999
REV_AT_EPOCH   = 68746
BSTAR          = .6721E-4
MEAN_MOTION_DOT = .83E-6
MEAN_MOTION_DDOT = 0

CCSDS_OMM_VERS = 2.0
CREATION_DATE  = 
ORIGINATOR     = 

OBJECT_NAME    = COSMOS 2242
OBJECT_ID      = 1993-024A
CENTER_NAME    = EARTH
REF_FRAME      = TEME
TIME_SYSTEM    = UTC
MEAN_ELEMENT_THEORY = SGP/SGP4

EPOCH          = 2025-11-25T15:31:51.251808
MEAN_MOTION    = 14.96003535
ECCENTRICITY   = .0014928
INCLINATION    = 82.5198
RA_OF_ASC_NODE = 6.1809
ARG_OF_PERICENTER = 297.6575
MEAN_ANOMALY   = 62.3131

EPHEMERIS_TYPE = 0
CLASSIFICATION_TYPE = U
NORAD_CAT_ID   = 22626
ELEMENT_SET_NO = 999
REV_AT_EPOCH   = 76483
BSTAR          = .25429E-3
MEAN_MOTION_DOT = .2882E-4
MEAN_MOTION_DDOT = 0

CCSDS_OMM_VERS = 2.0
CREATION_DATE  = 
ORIGINATOR     = 

OBJECT_NAME    = SL-16 R/B
OBJECT_ID      = 1993-059B
CENTER_NAME    = EARTH
REF_FRAME      = TEME
TIME_SYSTEM    = UTC
MEAN_ELEMENT_THEORY = SGP/SGP4

EPOCH          = 2025-11-25T19:01:04.230912
MEAN_MOTION    = 14.17208060
ECCENTRICITY   = .0016969
INCLINATION    = 70.9897
RA_OF_ASC_NODE = 230.2216
ARG_OF_PERICENTER = 0.8092
MEAN_ANOMALY   = 359.3056

EPHEMERIS_TYPE = 0
CLASSIFICATION_TYPE = U
NORAD_CAT_ID   = 22803
ELEMENT_SET_NO = 999
REV_AT_EPOCH   = 66481
BSTAR          = -.42475E-4
MEAN_MOTION_DOT = -.134E-5
MEAN_MOTION_DDOT = 0

CCSDS_OMM_VERS = 2.0
CREATION_DATE  = 
ORIGINATOR     = 

OBJECT_NAME    = ARIANE 40 R/B
OBJECT_ID      = 1993-061H
CENTER_NAME    = EARTH
REF_FRAME      = TEME
TIME_SYSTEM    = UTC
MEAN_ELEMENT_THEORY = SGP/SGP4

EPOCH          = 2025-11-25T18:55:08.923872
MEAN_MOTION    = 14.32785122
ECCENTRICITY   = .000994
INCLINATION    = 98.5096
RA_OF_ASC_NODE = 35.6252
ARG_OF_PERICENTER = 227.3739
MEAN_ANOMALY   = 132.6608

EPHEMERIS_TYPE = 0
CLASSIFICATION_TYPE = U
NORAD_CAT_ID   = 22830
ELEMENT_SET_NO = 999
REV_AT_EPOCH   = 67922
BSTAR          = .12321E-3
MEAN_MOTION_DOT = .293E-5
MEAN_MOTION_DDOT = 0

CCSDS_OMM_VERS = 2.0
CREATION_DATE  = 
ORIGINATOR     = 

OBJECT_NAME    = COSMOS 2278
OBJECT_ID      = 1994-023A
CENTER_NAME    = EARTH
REF_FRAME      = TEME
TIME_SYSTEM    = UTC
MEAN_ELEMENT_THEORY = SGP/SGP4

EPOCH          = 2025-11-25T15:10:57.387360
MEAN_MOTION    = 14.14348974
ECCENTRICITY   = .0009325
INCLINATION    = 71.0557
RA_OF_ASC_NODE = 32.8008
ARG_OF_PERICENTER = 202.8234
MEAN_ANOMALY   = 157.2475

EPHEMERIS_TYPE = 0
CLASSIFICATION_TYPE = U
NORAD_CAT_ID   = 23087
ELEMENT_SET_NO = 999
REV_AT_EPOCH   = 63009
BSTAR          = .12534E-3
MEAN_MOTION_DOT = .193E-5
MEAN_MOTION_DDOT = 0

CCSDS_OMM_VERS = 2.0
CREATION_DATE  = 
ORIGINATOR     = 

OBJECT_NAME    = SL-16 R/B
OBJECT_ID      = 1994-023B
CENTER_NAME    = EARTH
REF_FRAME      = TEME
TIME_SYSTEM    = UTC
MEAN_ELEMENT_THEORY = SGP/SGP4

EPOCH          = 2025-11-25T14:02:42.907776
MEAN_MOTION    = 14.14992290
ECCENTRICITY   = .0001132
INCLINATION    = 70.9991
RA_OF_ASC_NODE = 289.5103
ARG_OF_PERICENTER = 112.8748
MEAN_ANOMALY   = 247.2494

EPHEMERIS_TYPE = 0
CLASSIFICATION_TYPE = U
NORAD_CAT_ID   = 23088
ELEMENT_SET_NO = 999
REV_AT_EPOCH   = 63136
BSTAR          = .12126E-3
MEAN_MOTION_DOT = .187E-5
MEAN_MOTION_DDOT = 0

CCSDS_OMM_VERS = 2.0
CREATION_DATE  = 
ORIGINATOR     = 

OBJECT_NAME    = SL-16 R/B
OBJECT_ID      = 1994-074B
CENTER_NAME    = EARTH
REF_FRAME      = TEME
TIME_SYSTEM    = UTC
MEAN_ELEMENT_THEORY = SGP/SGP4

EPOCH          = 2025-11-25T16:58:15.414240
MEAN_MOTION    = 14.79260821
ECCENTRICITY   = .0006264
INCLINATION    = 97.7222
RA_OF_ASC_NODE = 359.6873
ARG_OF_PERICENTER = 187.3972
MEAN_ANOMALY   = 289.2353

EPHEMERIS_TYPE = 0
CLASSIFICATION_TYPE = U
NORAD_CAT_ID   = 23343
ELEMENT_SET_NO = 999
REV_AT_EPOCH   = 67187
BSTAR          = .90281E-4
MEAN_MOTION_DOT = .622E-5
MEAN_MOTION_DDOT = 0

CCSDS_OMM_VERS = 2.0
CREATION_DATE  = 
ORIGINATOR     = 

OBJECT_NAME    = SL-16 R/B
OBJECT_ID      = 1994-077B
CENTER_NAME    = EARTH
REF_FRAME      = TEME
TIME_SYSTEM    = UTC
MEAN_ELEMENT_THEORY = SGP/SGP4

EPOCH          = 2025-11-25T19:39:55.359936
MEAN_MOTION    = 14.15547211
ECCENTRICITY   = .0004549
INCLINATION    = 70.9819
RA_OF_ASC_NODE = 211.0088
ARG_OF_PERICENTER = 297.7577
MEAN_ANOMALY   = 62.3084

EPHEMERIS_TYPE = 0
CLASSIFICATION_TYPE = U
NORAD_CAT_ID   = 23405
ELEMENT_SET_NO = 999
REV_AT_EPOCH   = 60153
BSTAR          = -.91184E-4
MEAN_MOTION_DOT = -.226E-5
MEAN_MOTION_DDOT = 0

CCSDS_OMM_VERS = 2.0
CREATION_DATE  = 
ORIGINATOR     = 

OBJECT_NAME    = ARIANE 40+ R/B
OBJECT_ID      = 1995-021B
CENTER_NAME    = EARTH
REF_FRAME      = TEME
TIME_SYSTEM    = UTC
MEAN_ELEMENT_THEORY = SGP/SGP4

EPOCH          = 2025-11-25T18:54:55.905120
MEAN_MOTION    = 14.39676084
ECCENTRICITY   = .0007933
INCLINATION    = 98.4670
RA_OF_ASC_NODE = 37.5802
ARG_OF_PERICENTER = 94.1575
MEAN_ANOMALY   = 16.2529

EPHEMERIS_TYPE = 0
CLASSIFICATION_TYPE = U
NORAD_CAT_ID   = 23561
ELEMENT_SET_NO = 999
REV_AT_EPOCH   = 60429
BSTAR          = .14106E-3
MEAN_MOTION_DOT = .398E-5
MEAN_MOTION_DDOT = 0

CCSDS_OMM_VERS = 2.0
CREATION_DATE  = 
ORIGINATOR     = 

OBJECT_NAME    = SL-16 R/B
OBJECT_ID      = 1995-058B
CENTER_NAME    = EARTH
REF_FRAME      = TEME
TIME_SYSTEM    = UTC
MEAN_ELEMENT_THEORY = SGP/SGP4

EPOCH          = 2025-11-25T14:37:18.210720
MEAN_MOTION    = 14.15474670
ECCENTRICITY   = .0014906
INCLINATION    = 71.0224
RA_OF_ASC_NODE = 38.7695
ARG_OF_PERICENTER = 276.9392
MEAN_ANOMALY   = 83.0035

EPHEMERIS_TYPE = 0
CLASSIFICATION_TYPE = U
NORAD_CAT_ID   = 23705
ELEMENT_SET_NO = 999
REV_AT_EPOCH   = 55312
BSTAR          = .22253E-4
MEAN_MOTION_DOT = -.4E-7
MEAN_MOTION_DDOT = 0

CCSDS_OMM_VERS = 2.0
CREATION_DATE  = 
ORIGINATOR     = 

OBJECT_NAME    = SL-16 R/B
OBJECT_ID      = 1996-051B
CENTER_NAME    = EARTH
REF_FRAME      = TEME
TIME_SYSTEM    = UTC
MEAN_ELEMENT_THEORY = SGP/SGP4

EPOCH          = 2025-11-25T15:11:25.641024
MEAN_MOTION    = 14.12394196
ECCENTRICITY   = .0018831
INCLINATION    = 70.7607
RA_OF_ASC_NODE = 35.4934
ARG_OF_PERICENTER = 282.5986
MEAN_ANOMALY   = 77.3027

EPHEMERIS_TYPE = 0
CLASSIFICATION_TYPE = U
NORAD_CAT_ID   = 24298
ELEMENT_SET_NO = 999
REV_AT_EPOCH   = 50695
BSTAR          = .19496E-4
MEAN_MOTION_DOT = -.13E-6
MEAN_MOTION_DDOT = 0

