COSMOS 2228             
1 22286U 92094A   25329.77550863  .00003275  00000+0  28463-3 0  9998
2 22286  82.5177 336.7668 0016461 294.1665  65.7836 14.96613168760511
SL-16 R/B               
1 22566U 93016B   25329.74240794  .00000083  00000+0  67210-4 0  9998
2 22566  71.0088  73.5006 0008268 129.4756 230.7099 14.15288800687464
COSMOS 2242             
1 22626U 93024A   25329.64712097  .00002882  00000+0  25429-3 0  9997
2 22626  82.5198   6.1809 0014928 297.6575  62.3131 14.96003535764832
SL-16 R/B               
1 22803U 93059B   25329.79241008 -.00000134  00000+0 -42475-4 0  9998
2 22803  70.9897 230.2216 0016969   0.8092 359.3056 14.17208060664818
ARIANE 40 R/B           
1 22830U 93061H   25329.78829773  .00000293  00000+0  12321-3 0  9991
2 22830  98.5096  35.6252 0009940 227.3739 132.6608 14.32785122679229
COSMOS 2278             
1 23087U 94023A   25329.63260865  .00000193  00000+0  12534-3 0  9995
2 23087  71.0557  32.8008 0009325 202.8234 157.2475 14.14348974630092
SL-16 R/B               
1 23088U 94023B   25329.58521884  .00000187  00000+0  12126-3 0  9991
2 23088  70.9991 289.5103 0001132 112.8748 247.2494 14.14992290631366
SL-16 R/B               
1 23343U 94074B   25329.70712285  .00000622  00000+0  90281-4 0  9995
2 23343  97.7222 359.6873 0006264 187.3972 289.2353 14.79260821671873
SL-16 R/B               
1 23405U 94077B   25329.81939074 -.00000226  00000+0 -91184-4 0  9991
2 23405  70.9819 211.0088 0004549 297.7577  62.3084 14.15547211601535
ARIANE 40+ R/B          
1 23561U 95021B   25329.78814705  .00000398  00000+0  14106-3 0  9999
2 23561  98.4670  37.5802 0007933  94.1575  16.2529 14.39676084604295
SL-16 R/B               
1 23705U 95058B   25329.60923855 -.00000004  00000+0  22253-4 0  9995
2 23705  71.0224  38.7695 0014906 276.9392  83.0035 14.15474670553125
SL-16 R/B               
1 24298U 96051B   25329.63293566 -.00000013  00000+0  19496-4 0  9994
2 24298  70.7607  35.4934 0018831 282.5986  77.3027 14.12394196506954
